satname,norad_id,inclination_deg,eccentricity,mean_motion_rev_per_day,perigee_km,apogee_km,l1,l2
STARLINK-1470,45772,53.0521,0.0007631,15.2117244,497.0524893484835,507.553416804868,1 45772U 20038AU  25351.59336804  .00025526  00000+0  11408-2 0  9997,2 45772  53.0521 193.3090 0007631  93.2112 266.9757 15.21172440304559
STARLINK-1482,45773,53.0526,0.0001407,15.06395905,546.2497102439484,548.1985068598951,1 45773U 20038AV  25351.31590985 -.00001188  00000+0 -60849-4 0  9995,2 45773  53.0526 206.4061 0001407  92.2146 267.9004 15.06395905304349
STARLINK-1496,45780,53.0535,0.0001276,15.1028444,534.4496743167538,536.2139915629195,1 45780U 20038BC  25351.66670139  .00026451  00000+0  16088-2 0  9993,2 45780  53.0535 204.8163 0001276 120.3330 171.9170 15.10284440  5807
STARLINK-1497,45781,53.0324,0.0001981,15.69235201,359.750745948837,362.42082601664333,1 45781U 20038BD  25351.66670139  .00196423  00000+0  16193-2 0  9998,2 45781  53.0324 131.6634 0001981 112.2854 204.0195 15.69235201  5819
STARLINK-1510,45784,53.0212,0.0006217,15.95309853,283.30715590801265,291.59514821628545,1 45784U 20038BG  25351.66670139  .00417684  80993-4  10378-2 0  9999,2 45784  53.0212 100.9859 0006217 322.1205 337.4110 15.95309853  5749
STARLINK-1513,45786,53.0535,0.0001519,15.06400862,546.1569559890431,548.2608760783341,1 45786U 20038BJ  25351.31223697  .00001970  00000+0  15113-3 0  9992,2 45786  53.0535 206.4252 0001519  96.8859 263.2303 15.06400862304340
STARLINK-1522,46027,53.0548,0.0001314,15.06398192,546.3071076747847,548.1270907320541,1 46027U 20055A   25351.62461265  .00001310  00000+0  10680-3 0  9991,2 46027  53.0548 135.0212 0001314  98.6109 261.5029 15.06398192296514
STARLINK-1523,46028,53.054,9.79e-05,15.0639329,546.5541295610365,547.91011683536,1 46028U 20055B   25351.63935752  .00000735  00000+0  68209-4 0  9991,2 46028  53.0540 134.9581 0000979  97.5994 262.5106 15.06393290296533
STARLINK-1526,46029,53.0554,0.0001202,15.06406332,546.3597267742407,548.0245759022218,1 46029U 20055C   25351.63197824  .00001044  00000+0  88951-4 0  9992,2 46029  53.0554 134.9877 0001202  93.7072 266.4054 15.06406332296528
STARLINK-1555,46032,53.0554,0.0001309,15.06405003,546.2896983871906,548.1027506253668,1 46032U 20055F   25351.61724103  .00002161  00000+0  16391-3 0  9999,2 46032  53.0554 135.0542 0001309  95.0530 265.0608 15.06405003296529
STARLINK-1556,46033,53.0542,0.0001088,15.06403879,546.4461927578377,547.9531460170965,1 46033U 20055G   25351.59881009  .00002364  00000+0  17754-3 0  9995,2 46033  53.0542 135.1370 0001088  87.9065 272.2048 15.06403879296497
STARLINK-1557,46034,53.0551,0.0001283,15.06408247,546.2977632092716,548.0748011634814,1 46034U 20055H   25351.60249097  .00001279  00000+0  10472-3 0  9997,2 46034  53.0551 135.1210 0001283  85.5005 274.6130 15.06408247296498
STARLINK-1558,46035,53.0552,0.0001159,15.0640419,546.3960698120036,548.0013626310238,1 46035U 20055J   25351.60986093  .00000746  00000+0  68926-4 0  9998,2 46035  53.0552 135.0899 0001159  97.9191 262.1929 15.06404190296522
STARLINK-1560,46036,53.0546,0.0001316,15.0639064,546.3288654932694,548.1516247841901,1 46036U 20055K   25351.66148412  .00001695  00000+0  13267-3 0  9991,2 46036  53.0546 134.8600 0001316  82.0998 278.0140 15.06390640296534
STARLINK-1567,46038,53.0547,0.0001316,15.06393823,546.3191112566838,548.1418679799517,1 46038U 20055M   25351.60619704  .00002106  00000+0  16027-3 0  9999,2 46038  53.0547 135.1057 0001316  81.2351 278.8787 15.06393823296510
STARLINK-1569,46039,53.0551,0.0001299,15.0640628,546.2927104321689,548.0919109870902,1 46039U 20055N   25351.61354265  .00000745  00000+0  68893-4 0  9995,2 46039  53.0551 135.0728 0001299  87.6745 272.4393 15.06406280296512
STARLINK-1582,46043,53.0544,0.0001264,15.06392284,546.3598394210148,548.1105735148103,1 46043U 20055S   25351.62093448  .00001054  00000+0  89664-4 0  9997,2 46043  53.0544 135.0377 0001264  87.9630 272.1504 15.06392284296516
STARLINK-1591,46045,53.0556,0.0001391,15.06402269,546.2412887717155,548.1679188058888,1 46045U 20055U   25351.64672221  .00001760  00000+0  13703-3 0  9997,2 46045  53.0556 134.9219 0001391  88.6601 271.4547 15.06402269296504
STARLINK-1524,46047,53.0541,0.0001272,15.06406922,546.309441448424,548.071244724506,1 46047U 20055W   25351.59972849  .00001715  00000+0  13400-3 0  9996,2 46047  53.0541 125.1335 0001272  85.0723 275.0411 15.06406922296651
STARLINK-1527,46048,53.0557,0.0001683,15.06411986,546.0092928383738,548.3403527979335,1 46048U 20055X   25351.59603513 -.00000524  00000+0 -16281-4 0  9996,2 46048  53.0557 125.1499 0001683  85.1056 275.0125 15.06411986296632
STARLINK-1540,46051,53.0549,0.000116,15.06404474,546.394506964476,548.0011846487032,1 46051U 20055AA  25351.62921103  .00000968  00000+0  83830-4 0  9996,2 46051  53.0549 125.0000 0001160  91.6863 268.4259 15.06404474296674
STARLINK-1541,46052,53.055,0.0001243,15.06404532,546.3368489465893,548.0584871450656,1 46052U 20055AB  25351.54811838  .00000262  00000+0  36449-4 0  9992,2 46052  53.0550 125.3638 0001243  95.0870 265.0260 15.06404532296620
STARLINK-1543,46053,53.057,0.0001365,15.06403372,546.2559145957375,548.146531930689,1 46053U 20055AC  25351.61815212  .00000436  00000+0  48170-4 0  9998,2 46053  53.0570 125.0518 0001365 100.3816 259.7327 15.06403372296661
STARLINK-1548,46054,53.0554,0.0001214,15.06402141,546.3642595710835,548.0457326077349,1 46054U 20055AD  25351.62552253  .00000864  00000+0  76901-4 0  9991,2 46054  53.0554 125.0177 0001214  93.6239 266.4889 15.06402141296662
STARLINK-1554,46055,53.055,0.0001547,15.06398646,546.1443556924842,548.2870598202626,1 46055U 20055AE  25351.61078484  .00002165  00000+0  16423-3 0  9998,2 46055  53.0550 125.0842 0001547  91.4192 268.6974 15.06398646296664
STARLINK-1564,46058,53.0563,0.0001257,15.06400984,546.3380261869961,548.0790580562843,1 46058U 20055AH  25351.62189950  .00001234  00000+0  10174-3 0  9996,2 46058  53.0563 125.4965 0001257  92.2403 267.8730 15.06400984296652
STARLINK-1570,46059,53.0547,0.000105,15.06403577,546.4734345226807,547.9277554176242,1 46059U 20055AJ  25351.58498240  .00000618  00000+0  60373-4 0  9999,2 46059  53.0547 125.2042 0001050  86.4295 273.6814 15.06403577296619
STARLINK-1572,46060,53.0552,0.0001252,15.06401371,546.3403029105493,548.074409137299,1 46060U 20055AK  25351.64764374  .00000976  00000+0  84370-4 0  9992,2 46060  53.0552 124.9186 0001252  87.4089 272.7043 15.06401371296634
